OBJECT_NAME,OBJECT_ID,EPOCH,MEAN_MOTION,ECCENTRICITY,INCLINATION,RA_OF_ASC_NODE,ARG_OF_PERICENTER,MEAN_ANOMALY,EPHEMERIS_TYPE,CLASSIFICATION_TYPE,NORAD_CAT_ID,ELEMENT_SET_NO,REV_AT_EPOCH,BSTAR,MEAN_MOTION_DOT,MEAN_MOTION_DDOT
ONEWEB-0721,2023-068R,2026-07-02T04:42:19.653120,13.22470287,.00018286,86.6759,80.7260,77.8336,282.3001,0,U,56725,999,15992,.23518454E-3,.113E-5,0
ONEWEB-0015,2024-188A,2026-07-02T00:50:00.835296,13.11416578,.00018459,87.8874,18.1366,71.0756,289.0571,0,U,61594,999,8640,-.14670329E-2,-.507E-5,0
ONEWEB-0687,2024-188B,2026-07-02T04:33:54.188064,13.17649611,.00022351,87.9130,2.8907,81.0008,279.1376,0,U,61595,999,8787,-.4702961E-4,-.5E-7,0
ONEWEB-0688,2024-188C,2026-07-02T05:15:12.205728,13.17649812,.00019843,87.9128,2.8849,53.5761,306.5553,0,U,61596,999,8787,-.19535501E-3,-.63E-6,0
ONEWEB-0689,2024-188D,2026-07-01T23:48:59.592096,13.11416333,.00021606,87.8894,18.1049,88.5093,271.6283,0,U,61597,999,8639,.15203552E-2,.552E-5,0
ONEWEB-0690,2024-188E,2026-07-02T05:33:14.986944,13.11414786,.00012508,87.8886,18.0681,98.4769,261.6501,0,U,61598,999,8660,.87019839E-3,.321E-5,0
ONEWEB-0691,2024-188F,2026-07-01T23:56:19.093344,13.11415425,.00019453,87.8897,18.0249,76.2214,283.9130,0,U,61599,999,8642,.11588834E-2,.423E-5,0
ONEWEB-0692,2024-188G,2026-07-02T05:55:12.882432,13.11415155,.00023989,87.8875,18.0857,104.0330,256.1065,0,U,61600,999,8644,-.49812913E-3,-.164E-5,0
ONEWEB-0693,2024-188H,2026-07-02T00:04:10.610112,13.17649038,.00010799,87.9126,2.9472,95.2251,264.9004,0,U,61601,999,8783,.2150696E-5,.14E-6,0
ONEWEB-0695,2024-188J,2026-07-01T23:51:26.555904,13.11416292,.0002336,87.8877,18.1280,94.0433,266.0962,0,U,61602,999,8640,.15265981E-2,.554E-5,0
ONEWEB-0697,2024-188K,2026-07-02T02:27:40.777056,13.11415853,.00023221,87.8876,18.0969,105.5833,254.5551,0,U,61603,999,8640,-.13837521E-2,-.478E-5,0
ONEWEB-0698,2024-188L,2026-07-02T05:35:41.485056,13.11414919,.00018089,87.8874,18.0845,126.0544,234.0752,0,U,61604,999,8644,.10046811E-2,.369E-5,0
ONEWEB-0699,2024-188M,2026-07-02T02:31:08.146560,13.10375367,.0002094,87.8821,33.2938,103.7766,256.3594,0,U,61605,999,8526,.99083607E-3,.359E-5,0
ONEWEB-0700,2024-188N,2026-07-02T02:33:35.126784,13.10377731,.0002345,87.8838,33.2049,97.7253,262.4141,0,U,61606,999,8525,.17266192E-2,.615E-5,0
ONEWEB-0701,2024-188P,2026-07-02T02:58:02.083872,13.10369820,.00022018,87.8820,33.2900,107.5334,252.6034,0,U,61607,999,8526,.11316617E-2,.408E-5,0
ONEWEB-0702,2024-188Q,2026-07-01T23:22:08.124960,13.11418229,.00026469,87.8897,18.0449,105.2468,254.8953,0,U,61608,999,8642,-.14549394E-4,.8E-7,0
ONEWEB-0704,2024-188R,2026-07-02T02:40:55.069536,13.10377117,.00027045,87.8825,33.2820,100.6440,259.4992,0,U,61609,999,8524,.1880342E-2,.669E-5,0
ONEWEB-0705,2024-188S,2026-07-02T02:48:16.057728,13.10371055,.00028492,87.8826,33.2868,85.0010,275.1442,0,U,61610,999,7741,.1744306E-2,.622E-5,0
ONEWEB-0706,2024-188T,2026-07-02T02:26:16.269216,13.10376899,.0002393,87.8826,33.2942,92.5883,267.5519,0,U,61611,999,8533,.12162544E-2,.437E-5,0
ONEWEB-0707,2024-188U,2026-07-02T02:36:01.770048,13.10377588,.00023928,87.8828,33.2874,92.9596,267.1805,0,U,61612,999,8527,.19535358E-2,.695E-5,0
ONEWEB-0708,2024-188V,2026-07-02T03:02:56.108256,13.10374604,.00022419,87.8813,33.3009,75.7039,284.4337,0,U,61613,999,8525,.75535176E-3,.276E-5,0
