ONEWEB-0721             
1 56725U 23068R   26183.19606080  .00000113  00000+0  23518-3 0  9990
2 56725  86.6759  80.7260 0001828  77.8336 282.3001 13.22470287159922
ONEWEB-0015             
1 61594U 24188A   26183.03473189 -.00000507  00000+0 -14670-2 0  9996
2 61594  87.8874  18.1366 0001845  71.0756 289.0571 13.11416578 86405
ONEWEB-0687             
1 61595U 24188B   26183.19021051 -.00000005  00000+0 -47030-4 0  9992
2 61595  87.9130   2.8907 0002235  81.0008 279.1376 13.17649611 87875
ONEWEB-0688             
1 61596U 24188C   26183.21889127 -.00000063  00000+0 -19536-3 0  9995
2 61596  87.9128   2.8849 0001984  53.5761 306.5553 13.17649812 87873
ONEWEB-0689             
1 61597U 24188D   26182.99235639  .00000552  00000+0  15204-2 0  9991
2 61597  87.8894  18.1049 0002160  88.5093 271.6283 13.11416333 86390
ONEWEB-0690             
1 61598U 24188E   26183.23142346  .00000321  00000+0  87020-3 0  9992
2 61598  87.8886  18.0681 0001250  98.4769 261.6501 13.11414786 86608
ONEWEB-0691             
1 61599U 24188F   26182.99744321  .00000423  00000+0  11589-2 0  9995
2 61599  87.8897  18.0249 0001945  76.2214 283.9130 13.11415425 86427
ONEWEB-0692             
1 61600U 24188G   26183.24667688 -.00000164  00000+0 -49813-3 0  9993
2 61600  87.8875  18.0857 0002398 104.0330 256.1065 13.11415155 86444
ONEWEB-0693             
1 61601U 24188H   26183.00290058  .00000014  00000+0  21507-5 0  9995
2 61601  87.9126   2.9472 0001079  95.2251 264.9004 13.17649038 87837
ONEWEB-0695             
1 61602U 24188J   26182.99405736  .00000554  00000+0  15266-2 0  9995
2 61602  87.8877  18.1280 0002336  94.0433 266.0962 13.11416292 86408
ONEWEB-0697             
1 61603U 24188K   26183.10255529 -.00000478  00000+0 -13838-2 0  9993
2 61603  87.8876  18.0969 0002322 105.5833 254.5551 13.11415853 86406
ONEWEB-0698             
1 61604U 24188L   26183.23311904  .00000369  00000+0  10047-2 0  9994
2 61604  87.8874  18.0845 0001808 126.0544 234.0752 13.11414919 86445
ONEWEB-0699             
1 61605U 24188M   26183.10495540  .00000359  00000+0  99084-3 0  9998
2 61605  87.8821  33.2938 0002094 103.7766 256.3594 13.10375367 85268
ONEWEB-0700             
1 61606U 24188N   26183.10665656  .00000615  00000+0  17266-2 0  9992
2 61606  87.8838  33.2049 0002345  97.7253 262.4141 13.10377731 85254
ONEWEB-0701             
1 61607U 24188P   26183.12363523  .00000408  00000+0  11317-2 0  9994
2 61607  87.8820  33.2900 0002201 107.5334 252.6034 13.10369820 85266
ONEWEB-0702             
1 61608U 24188Q   26182.97370515  .00000008  00000+0 -14549-4 0  9995
2 61608  87.8897  18.0449 0002646 105.2468 254.8953 13.11418229 86428
ONEWEB-0704             
1 61609U 24188R   26183.11174849  .00000669  00000+0  18803-2 0  9992
2 61609  87.8825  33.2820 0002704 100.6440 259.4992 13.10377117 85248
ONEWEB-0705             
1 61610U 24188S   26183.11685252  .00000622  00000+0  17443-2 0  9997
2 61610  87.8826  33.2868 0002849  85.0010 275.1442 13.10371055 77412
ONEWEB-0706             
1 61611U 24188T   26183.10157719  .00000437  00000+0  12163-2 0  9997
2 61611  87.8826  33.2942 0002393  92.5883 267.5519 13.10376899 85332
ONEWEB-0707             
1 61612U 24188U   26183.10835382  .00000695  00000+0  19535-2 0  9993
2 61612  87.8828  33.2874 0002392  92.9596 267.1805 13.10377588 85276
ONEWEB-0708             
1 61613U 24188V   26183.12703829  .00000276  00000+0  75535-3 0  9994
2 61613  87.8813  33.3009 0002241  75.7039 284.4337 13.10374604 85252
